[{"OBJECT_NAME":"SITRO-AIS 19","OBJECT_ID":"2024-199AA","EPOCH":"2026-03-09T22:55:52.374720","MEAN_MOTION":14.97361264,"ECCENTRICITY":0.00068965,"INCLINATION":97.3309,"RA_OF_ASC_NODE":274.6556,"ARG_OF_PERICENTER":52.1847,"MEAN_ANOMALY":307.9999,"EPHEMERIS_TYPE":0,"CLASSIFICATION_TYPE":"U","NORAD_CAT_ID":61759,"ELEMENT_SET_NO":999,"REV_AT_EPOCH":12028,"BSTAR":0.00032569983,"MEAN_MOTION_DOT":3.731e-5,"MEAN_MOTION_DDOT":0},{"OBJECT_NAME":"THOR ABLESTAR DEB","OBJECT_ID":"1961-015G","EPOCH":"2026-03-09T12:36:21.518784","MEAN_MOTION":14.9924172,"ECCENTRICITY":0.00458994,"INCLINATION":66.74,"RA_OF_ASC_NODE":114.2823,"ARG_OF_PERICENTER":282.1843,"MEAN_ANOMALY":77.4151,"EPHEMERIS_TYPE":0,"CLASSIFICATION_TYPE":"U","NORAD_CAT_ID":122,"ELEMENT_SET_NO":999,"REV_AT_EPOCH":37932,"BSTAR":0.00092278357,"MEAN_MOTION_DOT":0.00011411,"MEAN_MOTION_DDOT":0}]
